NORAD_CAT_ID,OBJECT_NAME,OBJECT_TYPE,EPOCH,MEAN_MOTION,ECCENTRICITY,INCLINATION,RA_OF_ASC_NODE,ARG_OF_PERICENTER,MEAN_ANOMALY,BSTAR,MEAN_MOTION_DOT,MEAN_MOTION_DDOT,TLE_LINE0,TLE_LINE1,TLE_LINE2,SEMIMAJOR_AXIS,PERIOD,APOGEE,PERIGEE,DECAYED
53253.0,STARLINK-4133,PAYLOAD,2022-07-28 20:00:01,15.8943131,0.00406,53.2175,22.426,53.1038,336.1823,-0.0041284,-0.01321974,0.00049582,0 STARLINK-4133,1 53253U 22086M   22209.83334491 -.01321974  49582-3 -41284-2 0  9997,2 53253  53.2175  22.4260 0040600  53.1038 336.1823 15.89431310  1304,6682.013000000001,90.598,331.00699999999995,276.749,0.0
53253.0,STARLINK-4133,PAYLOAD,2022-07-29 06:00:00,15.88367056,0.0036323,53.2177,20.3139,55.487,198.5164,-0.0046711999999999,-0.01394314,0.00054101,0 STARLINK-4133,1 53253U 22086M   22210.25001157 -.01394314  54101-3 -46712-2 0  9997,2 53253  53.2177  20.3139 0036323  55.4870 198.5164 15.88367056  1362,6684.998000000001,90.659,331.145,282.581,0.0
53253.0,STARLINK-4133,PAYLOAD,2022-07-29 14:00:01,15.87466528,0.0032623,53.2177,18.6284,55.0662,305.5383,-0.0047808999999999,-0.01348759,0.00050501,0 STARLINK-4133,1 53253U 22086M   22210.58334491 -.01348759  50501-3 -47809-2 0  9993,2 53253  53.2177  18.6284 0032623  55.0662 305.5383 15.87466528  1419,6687.526,90.711,331.207,287.574,0.0
53253.0,STARLINK-4133,PAYLOAD,2022-07-29 22:00:00,15.86566817,0.0029314,53.2173,16.9466,56.4637,49.6848,-0.004878,-0.01304639,0.00047142,0 STARLINK-4133,1 53253U 22086M   22210.91667824 -.01304639  47142-3 -48780-2 0  9994,2 53253  53.2173  16.9466 0029314  56.4637  49.6848 15.86566817  1477,6690.054,90.762,331.53,292.307,0.0
53253.0,STARLINK-4133,PAYLOAD,2022-07-30 06:00:00,15.85721728,0.0026252,53.2175,15.2631,56.475,154.1451,-0.0054021,-0.01375166,0.00051497,0 STARLINK-4133,1 53253U 22086M   22211.25001157 -.01375166  51497-3 -54021-2 0  9999,2 53253  53.2175  15.2631 0026252  56.4750 154.1451 15.85721728  1520,6692.43,90.81,331.8640000000001,296.726,0.0
53253.0,STARLINK-4133,PAYLOAD,2022-07-30 14:00:01,15.84846167,0.0022941999999999,53.2176,13.5844,55.7668,258.2776,-0.0057058,-0.01219505,0.0,0 STARLINK-4133,1 53253U 22086M   22211.58334491 -.01219505  00000-0 -57058-2 0  9993,2 53253  53.2176  13.5844 0022942  55.7668 258.2776 15.84846167  1306,6694.895,90.861,332.119,301.401,0.0
53253.0,STARLINK-4133,PAYLOAD,2022-07-30 22:00:00,15.83936054,0.0019877,53.2174,11.9087,56.4514,359.9725,-0.0057045,-0.01165436,0.0,0 STARLINK-4133,1 53253U 22086M   22211.91667824 -.01165436  00000-0 -57045-2 0  9998,2 53253  53.2174  11.9087 0019877  56.4514 359.9725 15.83936054  1639,6697.459,90.913,332.63699999999994,306.012,0.0
53253.0,STARLINK-4133,PAYLOAD,2022-07-31 14:00:01,15.822150699999998,0.0013437,53.2175,8.56,52.7634,205.2196,-0.0066085,-0.01244499,0.0,0 STARLINK-4133,1 53253U 22086M   22212.58334491 -.01244499  00000-0 -66085-2 0  9994,2 53253  53.2175   8.5600 0013437  52.7634 205.2196 15.82215070  1307,6702.315,91.012,333.186,315.1740000000001,0.0
53253.0,STARLINK-4133,PAYLOAD,2022-07-31 22:00:00,15.81318755,0.0009834,53.2171,6.8907,51.043,306.1467,-0.0067281999999999,-0.01212735,0.0,0 STARLINK-4133,1 53253U 22086M   22212.91667824 -.01212735  00000-0 -67282-2 0  9998,2 53253  53.2171   6.8907 0009834  51.0430 306.1467 15.81318755  1301,6704.847,91.063,333.306,320.119,0.0
53253.0,STARLINK-4133,PAYLOAD,2022-08-01 14:00:01,15.79562879,0.0004574,53.2177,3.5548,27.9098,164.5143,-0.0073278,-0.01211465,0.0,0 STARLINK-4133,1 53253U 22086M   22213.58334491 -.01211465  00000-0 -73278-2 0  9994,2 53253  53.2177   3.5548 0004574  27.9098 164.5143 15.79562879  1302,6709.815,91.164,334.749,328.611,0.0
53253.0,STARLINK-4133,PAYLOAD,2022-08-01 22:00:00,15.78686819,0.0003203,53.2173,1.8918,11.4439,277.0116,-0.0076562,-0.01214428,0.0,0 STARLINK-4133,1 53253U 22086M   22213.91667824 -.01214428  00000-0 -76562-2 0  9991,2 53253  53.2173   1.8918 0003203  11.4439 277.0116 15.78686819  1945,6712.297,91.215,336.3119999999999,332.01199999999994,0.0
53253.0,STARLINK-4133,PAYLOAD,2022-08-02 14:00:01,15.76923487,0.0003373999999999,53.2173,358.5693,6.7713,110.5851,-0.0082218,-0.01205409,0.0,0 STARLINK-4133,1 53253U 22086M   22214.58334491 -.01205409  00000-0 -82218-2 0  9990,2 53253  53.2173 358.5693 0003374   6.7713 110.5851 15.76923487  1308,6717.3,91.317,341.432,336.899,0.0
53253.0,STARLINK-4133,PAYLOAD,2022-08-03 06:00:00,15.7515997,0.0003404,53.2174,355.255,345.939,316.094,-0.0088091,-0.01195371,0.0,0 STARLINK-4133,1 53253U 22086M   22215.25001157 -.01195371  00000-0 -88091-2 0  9996,2 53253  53.2174 355.2550 0003404 345.9390 316.0940 15.75159970  2151,6722.313,91.419,346.466,341.89,0.0
53253.0,STARLINK-4133,PAYLOAD,2022-08-03 14:00:01,15.74191646,0.0003218999999999,53.2177,353.6031,328.7421,64.0576,-0.007289,-0.00955049,0.0,0 STARLINK-4133,1 53253U 22086M   22215.58334491 -.00955049  00000-0 -72890-2 0  9997,2 53253  53.2177 353.6031 0003219 328.7421  64.0576 15.74191646  1304,6725.069,91.476,349.099,344.77,0.0
53253.0,STARLINK-4133,PAYLOAD,2022-08-03 22:00:01,15.73363348,0.0003628999999999,53.2172,351.9525,237.2041,245.3643,-0.0017698,-0.00243779,0.0,0 STARLINK-4133,1 53253U 22086M   22215.91668981 -.00243779  00000-0 -17698-2 0  9993,2 53253  53.2172 351.9525 0003629 237.2041 245.3643 15.73363348  2269,6727.43,91.524,351.736,346.853,0.0
53253.0,STARLINK-4133,PAYLOAD,2022-08-04 06:00:00,15.73206098,0.0007352999999999,53.2178,350.3017,274.3031,297.2145,-2.4202e-05,-4.032e-05,0.0,0 STARLINK-4133,1 53253U 22086M   22216.25001157 -.00004032  00000-0 -24202-4 0  9995,2 53253  53.2178 350.3017 0007353 274.3031 297.2145 15.73206098  2310,6727.878000000002,91.533,354.69,344.796,0.0
53253.0,STARLINK-4133,PAYLOAD,2022-08-04 14:00:01,15.73203116,0.0007224,53.2173,348.653,275.7067,24.7456,1.7044e-05,1.766e-05,0.0,0 STARLINK-4133,1 53253U 22086M   22216.58334491  .00001766  00000-0  17044-4 0  9996,2 53253  53.2173 348.6530 0007224 275.7067  24.7456 15.73203116  1300,6727.886,91.533,354.612,344.891,0.0
53253.0,STARLINK-4133,PAYLOAD,2022-08-04 22:00:00,15.73185455,0.0007509,53.2199,347.0079,274.3748,115.0948,-0.00045198,-0.00063663,0.0,0 STARLINK-4133,1 53253U 22086M   22216.91667824 -.00063663  00000-0 -45198-3 0  9998,2 53253  53.2199 347.0079 0007509 274.3748 115.0948 15.73185455  1301,6727.937,91.534,354.85400000000016,344.75,0.0
53253.0,STARLINK-4133,PAYLOAD,2022-08-05 12:00:00,15.73178281,0.0007486,53.2204,344.1206,275.7835,179.2149,-5.2565e-05,-8.007e-05,0.0,0 STARLINK-4133,1 53253U 22086M   22217.50001157 -.00008007  00000-0 -52565-4 0  9993,2 53253  53.2204 344.1206 0007486 275.7835 179.2149 15.73178281  2512,6727.956999999999,91.534,354.8590000000001,344.786,0.0
53253.0,STARLINK-4133,PAYLOAD,2022-08-05 14:00:01,15.73171975,0.0007491,53.2202,343.7088,276.9066,290.3839,3.7303e-05,4.61e-05,0.0,0 STARLINK-4133,1 53253U 22086M   22217.58335648  .00004610  00000-0  37303-4 0  9993,2 53253  53.2202 343.7088 0007491 276.9066 290.3839 15.73171975  1308,6727.975,91.535,354.88,344.8,0.0
53253.0,STARLINK-4133,PAYLOAD,2022-08-05 22:00:00,15.7320586,0.0007598,53.2196,342.0595,278.9267,17.2152,0.00012369,0.00016797,0.0,0 STARLINK-4133,1 53253U 22086M   22217.91667824  .00016797  00000-0  12369-3 0  9997,2 53253  53.2196 342.0595 0007598 278.9267  17.2152 15.73205860  1303,6727.878000000002,91.533,354.855,344.63199999999995,0.0
53253.0,STARLINK-4133,PAYLOAD,2022-08-06 14:00:01,15.73267936,0.0007671,53.2198,338.7606,280.2843,193.7667,-0.00064306,-0.00090358,0.0,0 STARLINK-4133,1 53253U 22086M   22218.58334491 -.00090358  00000-0 -64306-3 0  9997,2 53253  53.2198 338.7606 0007671 280.2843 193.7667 15.73267936  1301,6727.701,91.529,354.727,344.406,0.0
53253.0,STARLINK-4133,PAYLOAD,2022-08-06 21:08:26,15.73199218,0.0007379,53.2201,337.2866,283.0198,76.9998,-0.00012881,-0.00018698,0.0,0 STARLINK-4133,1 53253U 22086M   22218.88086198 -.00018698  00000-0 -12881-3 0  9996,2 53253  53.2201 337.2866 0007379 283.0198  76.9998 15.73199218  2911,6727.897,91.533,354.727,344.798,0.0
53253.0,STARLINK-4133,PAYLOAD,2022-08-07 04:45:49,15.73244994,0.0007716,53.2203,335.7145,282.3015,77.7141,0.00016056,0.00022045,0.0,0 STARLINK-4133,1 53253U 22086M   22219.19849064  .00022045  00000-0  16056-3 0  9997,2 53253  53.2203 335.7145 0007716 282.3015  77.7141 15.73244994  2776,6727.767,91.531,354.8230000000001,344.441,0.0
53253.0,STARLINK-4133,PAYLOAD,2022-08-07 12:23:13,15.73240275,0.0007755,53.2204,334.1432,283.195,76.8205,0.00010764,0.00014554,0.0,0 STARLINK-4133,1 53253U 22086M   22219.51612442  .00014554  00000-0  10764-3 0  9997,2 53253  53.2204 334.1432 0007755 283.1950  76.8205 15.73240275  2824,6727.78,91.531,354.86300000000006,344.42800000000005,0.0
53253.0,STARLINK-4133,PAYLOAD,2022-08-07 21:32:05,15.73257186,0.0007871,53.2203,332.2572,284.447,75.5676,0.00022431,0.0003109999999999,0.0,0 STARLINK-4133,1 53253U 22086M   22219.89728436  .00031100  00000-0  22431-3 0  9999,2 53253  53.2203 332.2572 0007871 284.4470  75.5676 15.73257186  3072,6727.732,91.53,354.89300000000014,344.302,0.0
53253.0,STARLINK-4133,PAYLOAD,2022-08-07 22:00:00,15.73283866,0.000799,53.2198,332.1622,283.9937,185.9063,-0.00070132,-0.00098479,0.0,0 STARLINK-4133,1 53253U 22086M   22219.91667824 -.00098479  00000-0 -70132-3 0  9990,2 53253  53.2198 332.1622 0007990 283.9937 185.9063 15.73283866  2893,6727.656,91.528,354.896,344.146,0.0
53253.0,STARLINK-4133,PAYLOAD,2022-08-08 06:00:00,15.73199969,0.0008022,53.2199,330.5112,282.2157,276.6902,0.00064197,0.00090602,0.0,0 STARLINK-4133,1 53253U 22086M   22220.25001157  .00090602  00000-0  64197-3 0  9992,2 53253  53.2199 330.5112 0008022 282.2157 276.6902 15.73199969  2949,6727.895,91.533,355.157,344.36300000000006,0.0
53253.0,STARLINK-4133,PAYLOAD,2022-08-08 12:46:52,15.73273646,0.0007964,53.2204,329.1135,286.0348,73.9795,0.00025848,0.00035982,0.0,0 STARLINK-4133,1 53253U 22086M   22220.53254645  .00035982  00000-0  25848-3 0  9995,2 53253  53.2204 329.1135 0007964 286.0348  73.9795 15.73273646  3172,6727.685,91.529,354.908,344.19199999999995,0.0
